OBJECT_NAME,OBJECT_ID,EPOCH,MEAN_MOTION,ECCENTRICITY,INCLINATION,RA_OF_ASC_NODE,ARG_OF_PERICENTER,MEAN_ANOMALY,EPHEMERIS_TYPE,CLASSIFICATION_TYPE,NORAD_CAT_ID,ELEMENT_SET_NO,REV_AT_EPOCH,BSTAR,MEAN_MOTION_DOT,MEAN_MOTION_DDOT
GONETS-M 11,2015-020A,2026-06-26T04:26:31.487424,12.42877474,.0016196,82.4871,25.3844,346.3862,13.6778,0,U,40552,999,50985,.10505E-3,.24E-6,0
GONETS-M 12,2015-020B,2026-06-26T03:48:12.570912,12.42891343,.0014922,82.4905,26.5272,331.2676,28.7581,0,U,40553,999,50984,.23317E-3,.42E-6,0
GONETS-M 13,2015-020C,2026-06-26T05:06:09.401184,12.42871135,.0013241,82.4866,25.1059,315.9518,44.0505,0,U,40554,999,50982,.45204E-3,.72E-6,0
DMC3-FM1,2015-032A,2026-06-26T03:54:11.150784,14.85745998,.000655,97.6458,41.9854,35.5104,324.6547,0,U,40715,999,59124,.47594E-4,.362E-5,0
DMC3-FM2,2015-032B,2026-06-26T04:25:53.459328,14.85753636,.0007119,97.6512,43.5863,40.0057,320.1682,0,U,40716,999,59124,.1129E-3,.929E-5,0
DMC3-FM3,2015-032C,2026-06-26T03:22:35.306688,14.85745637,.0006417,97.6566,45.3029,41.5495,318.6208,0,U,40717,999,59124,.14678E-3,.1223E-4,0
CARBONITE 1 (CBNT-1),2015-032D,2026-06-26T05:17:01.803264,14.83609797,.0012908,97.6512,354.9082,265.2669,94.7072,0,U,40718,999,59068,.12907E-3,.1015E-4,0
DEORBITSAIL,2015-032E,2026-06-26T03:21:03.620736,15.03979608,.0012266,97.5903,33.7980,197.4449,162.6357,0,U,40719,999,59259,.64401E-3,.8852E-4,0
2015-049G,2015-049G,2026-06-26T04:22:08.789952,15.67156887,.000629,97.4556,221.7997,165.7217,194.4223,0,U,40905,999,59785,.41245E-3,.44152E-3,0
LILACSAT-2,2015-049K,2026-06-26T04:08:05.373888,15.51729514,.0006357,97.4639,214.3561,205.1746,154.9197,0,U,40908,999,59714,.31483E-3,.1869E-3,0
COSMOS 2507 (RODNIK-S 13),2015-050A,2026-06-26T04:00:38.113056,12.42926732,.00098,82.4924,74.0791,337.4627,22.6021,0,U,40920,999,48797,-.23119E-3,-.22E-6,0
COSMOS 2508 (RODNIK-S 14),2015-050B,2026-06-26T02:55:59.431296,12.42914273,.0014838,82.4876,72.6087,8.2915,351.8407,0,U,40921,999,48795,-.16329E-3,-.13E-6,0
COSMOS 2509 (RODNIK-S 15),2015-050C,2026-06-26T03:25:35.755680,12.42883827,.0015469,82.4884,72.6992,24.6411,335.5405,0,U,40922,999,48799,-.55672E-4,.2E-7,0
LQSAT,2015-057A,2026-06-26T05:12:17.483328,14.76793896,.0015513,97.6684,170.1448,241.3086,118.6566,0,U,40958,999,57664,.12593E-3,.836E-5,0
LINGQIAO VIDEO A,2015-057B,2026-06-26T05:36:52.600032,14.77404722,.0015255,97.6622,171.5896,238.0345,121.9384,0,U,40959,999,57674,.13971E-3,.947E-5,0
LINGQIAO VIDEO B,2015-057C,2026-06-26T05:02:21.022656,14.77508672,.0015447,97.6587,172.7279,238.0919,121.8790,0,U,40960,999,57678,.73795E-4,.479E-5,0
JILIN-1,2015-057D,2026-06-26T03:38:33.760032,14.78173673,.0015639,97.6508,176.0733,230.8894,129.0928,0,U,40961,999,57693,.11697E-3,.8E-5,0
FOX-1A (AO-85),2015-058D,2026-06-25T14:27:49.328064,14.91002790,.0130949,64.7749,252.8304,53.3196,307.9866,0,U,40967,999,11482,.21247E-3,.2302E-4,0
SINOD-D 1,2015-058E,2026-06-25T13:38:43.932192,14.95949961,.011961,64.7740,232.6646,49.7671,311.3833,0,U,40968,999,11791,.26676E-3,.3279E-4,0
ELEKTRO-L 2,2015-074A,2026-06-25T22:47:48.794784,1.00271163,.0000728,6.7170,70.4166,286.6211,244.4527,0,U,41105,999,3859,0,-.113E-5,0
DAMPE,2015-078A,2026-06-26T04:32:20.978016,15.30807906,.0013443,97.4561,182.7005,49.5823,310.6588,0,U,41173,999,58592,.5906E-4,.1684E-4,0
ORBCOMM FM114,2015-081A,2026-06-25T21:09:48.897216,14.58867764,.0002893,47.0058,320.8977,240.2582,119.8016,0,U,41179,999,55902,.12525E-3,.421E-5,0
ORBCOMM FM110,2015-081D,2026-06-25T20:52:54.702048,14.58892092,.0002584,47.0031,320.3877,128.0732,232.0387,0,U,41182,999,55889,.1617E-3,.594E-5,0
ORBCOMM FM112,2015-081F,2026-06-25T11:56:53.425248,14.58913169,.0004073,46.9976,230.9484,250.8293,109.2152,0,U,41184,999,56016,.11714E-3,.383E-5,0
ORBCOMM FM113,2015-081G,2026-06-24T20:36:02.113920,14.58864475,.0002552,46.9996,234.3526,251.1934,108.8675,0,U,41185,999,56005,.86126666E-4,.236E-5,0
ORBCOMM FM108,2015-081J,2026-06-26T04:34:09.835968,14.58884496,.0003129,47.0037,139.6294,255.2318,104.8221,0,U,41187,999,56139,.16846E-3,.625E-5,0
ORBCOMM FM117,2015-081K,2026-06-25T14:35:37.635072,14.58870589,.0003651,46.9999,141.0141,256.7948,103.2531,0,U,41188,999,56135,.94183E-4,.274E-5,0
ORBCOMM FM116,2015-081L,2026-06-25T12:28:41.228832,14.58892527,.0000645,47.0011,231.2222,150.1988,209.8935,0,U,41189,999,56015,.12318E-3,.412E-5,0
CHUBUSAT-2,2016-012B,2026-06-25T16:13:38.436384,15.20961954,.0008704,30.9971,265.6787,164.4669,195.6240,0,U,41338,999,56971,.26587E-3,.6161E-4,0
CHUBUSAT-3,2016-012C,2026-06-25T16:24:26.356032,15.18622886,.0009171,31.0053,275.4155,151.0039,209.1112,0,U,41339,999,56949,.22054E-3,.4794E-4,0
HORYU-4,2016-012D,2026-06-25T22:02:13.400160,16.06293383,.0008742,30.9835,14.4936,324.9122,35.0966,0,U,41340,999,57221,.12774E-2,.1006703E-1,.53081E-3
ZIYUAN 3-02 (ZY 3-02),2016-033A,2026-06-26T04:49:46.399872,15.21260093,.0012452,97.3838,252.8021,255.9364,104.0488,0,U,41556,999,55935,.26041E-3,.5761E-4,0
CARTOSAT-2C,2016-040A,2026-06-26T03:35:53.477664,15.19259995,.0010518,97.4488,237.0043,103.9834,256.2571,0,U,41599,999,55507,.28549E-3,.5959E-4,0
LAPAN-A3,2016-040E,2026-06-26T04:45:24.341760,15.33159955,.0009722,97.1488,173.0476,354.4370,5.6763,0,U,41603,999,55619,.13144E-3,.414E-4,0
GAOFEN-3,2016-049A,2026-06-26T04:08:23.607744,14.42215930,.0001578,98.4013,184.8228,97.1676,262.9693,0,U,41727,999,51994,-.16861E-4,-.99E-6,0
PRATHAM,2016-059A,2026-06-25T23:21:11.911392,14.67203755,.0030954,97.8323,173.4449,188.0014,172.0701,0,U,41783,999,52080,.10913E-3,.572E-5,0
ALSAT-1N,2016-059G,2026-06-26T05:47:06.313056,14.69319089,.0026279,97.8010,180.1886,155.8764,204.3680,0,U,41789,999,52133,.12443E-3,.691E-5,0
CAS-2T & KS-1Q,2016-066G,2026-06-26T04:12:10.920960,14.44722034,.0342903,98.3821,252.8088,102.3025,261.6774,0,U,41847,999,50609,.23266E-3,.1615E-4,0
YUNHAI-1 01,2016-068A,2026-06-26T04:14:50.125920,14.32428093,.0005641,98.5846,188.0993,33.9801,326.1743,0,U,41857,999,50311,.57196E-4,.111E-5,0
RESOURCESAT-2A,2016-074A,2026-06-26T05:17:28.116384,14.21618588,.0003214,98.7527,250.6511,66.4946,293.6569,0,U,41877,999,49558,-.91144E-5,-.64E-6,0
TANSAT,2016-081A,2026-06-26T05:26:21.709824,14.59956976,.0019169,98.5365,177.7516,282.6918,77.2138,0,U,41898,999,50594,.49243E-4,.186E-5,0
JILIN-1 03,2017-002B,2026-06-26T04:15:59.479200,15.41782690,.0007653,97.1945,184.1359,129.2623,230.9304,0,U,41914,999,52324,.33123E-3,.13955E-3,0
CARTOSAT-2D,2017-008A,2026-06-26T04:21:54.626400,15.19272122,.0004634,97.4105,236.3200,197.6124,162.4951,0,U,41948,999,51894,.30153E-3,.6294E-4,0
CARTOSAT-2E,2017-036C,2026-06-26T04:47:20.986944,15.19231348,.0002174,97.4274,236.8535,276.7896,83.3091,0,U,42767,999,49951,.22619E-3,.4697E-4,0
D-SAT,2017-036AF,2026-06-26T04:47:50.123616,15.17139636,.0083069,97.5557,156.0901,129.6942,231.1654,0,U,42794,999,49222,.35105E-3,.7544E-4,0
IRIDIUM 113,2017-039A,2026-06-25T21:23:59.132832,14.34217682,.0002156,86.3976,318.5397,90.0550,270.0893,0,U,42803,999,47243,-.28649E-5,.12E-6,0
NORSAT 2,2017-042D,2026-06-25T23:15:21.851424,15.22083090,.0009814,97.4040,350.2711,28.5410,331.6362,0,U,42828,999,48907,.51429E-3,.11725E-3,0
TECHNOSAT,2017-042E,2026-06-26T03:48:24.354144,15.05012446,.0019304,97.4293,334.4760,66.3786,293.9465,0,U,42829,999,48805,.22775E-3,.3186E-4,0
FLYING LAPTOP,2017-042G,2026-06-26T04:25:11.042112,15.01200003,.001997,97.4724,332.3729,92.9950,267.3560,0,U,42831,999,48780,.28561E-3,.3622E-4,0
WNISAT 1R,2017-042L,2026-06-26T03:41:06.060768,15.01797236,.0011934,97.4833,332.9556,120.1874,240.0534,0,U,42835,999,48785,.18837E-3,.2401E-4,0
LEMUR-2-GREENBERG,2017-042N,2026-06-25T23:21:29.456640,15.31583105,.0007712,97.3819,357.5590,340.8120,19.2830,0,U,42837,999,48973,.63302E-3,.19272E-3,0
LEMUR-2-FURIAUS,2017-042R,2026-06-25T23:21:23.131296,15.30524650,.0007561,97.3769,355.4943,40.8490,319.3317,0,U,42840,999,48955,.71119E-3,.20965E-3,0
CORVUS BC2,2017-042X,2026-06-26T03:54:20.865600,15.06350199,.0014724,97.4071,338.1642,82.8762,277.4139,0,U,42846,999,48841,.21672E-3,.3136E-4,0
CORVUS BC1,2017-042Y,2026-06-25T21:22:34.351968,15.06511248,.0013204,97.4097,338.7225,62.8165,297.4407,0,U,42847,999,48840,.19764E-3,.2866E-4,0
VRSS-2,2017-060A,2026-06-26T04:07:25.252320,14.81206109,.0018633,97.6513,214.4939,71.8323,288.4917,0,U,42954,999,46978,.59633E-4,.415E-5,0
MOHAMMED VI-A,2017-070A,2026-06-26T05:17:45.285792,14.77079006,.0001212,97.9557,249.4274,77.5338,282.6008,0,U,43005,999,46531,.88233E-4,.572E-5,0
FENGYUN 3D,2017-072A,2026-06-26T05:43:35.198976,14.19741286,.000236,99.0126,151.8243,48.2013,311.9364,0,U,43010,999,44627,.3678E-4,.32E-6,0
CZ-4C R/B,2017-072C,2026-06-26T03:55:32.854944,14.58792120,.0123442,98.5800,285.4571,123.9950,237.3048,0,U,43012,999,45794,.10821E-3,.506E-5,0
NOAA 20 (JPSS-1),2017-073A,2026-06-26T03:56:57.878592,14.19513286,.0000599,98.7772,116.5474,132.6118,227.5108,0,U,43013,999,44574,.40735E-4,.42E-6,0
MAKERSAT 0,2017-073D,2026-06-24T10:17:55.746816,15.32301022,.01048473,97.4622,58.0052,246.7219,112.2959,0,U,43016,999,46757,.42577588E-3,.15733E-3,0
RADFXSAT (FOX-1B),2017-073E,2026-06-25T14:36:06.350112,15.12826697,.014863,97.4699,43.6511,299.9037,58.7499,0,U,43017,999,46666,.35687E-3,.8156E-4,0
JILIN-1 04,2017-074A,2026-06-26T04:01:59.666880,15.42667579,.0004742,97.4862,287.0208,151.0112,209.1399,0,U,43022,999,47565,.36949E-3,.16033E-3,0
JILIN-1 05,2017-074B,2026-06-26T04:31:43.084704,15.34009320,.0005178,97.4868,283.4650,180.9526,179.1707,0,U,43023,999,47538,.29034E-3,.9478E-4,0
JILIN-1 06,2017-074C,2026-06-26T03:52:28.816032,15.33794077,.0006469,97.4795,280.4355,195.5040,164.6005,0,U,43024,999,47521,.23139E-3,.7486E-4,0
IRIDIUM 116,2017-083C,2026-06-25T22:27:55.157184,14.34217970,.0002143,86.3971,318.3429,101.7208,258.4228,0,U,43072,999,44542,.43431E-4,.141E-5,0
IRIDIUM 130,2017-083D,2026-06-25T21:42:15.014880,14.34216760,.0001994,86.3978,318.6322,96.4120,263.7302,0,U,43073,999,44536,.81001E-5,.42E-6,0
